start=new Date('2022-08-15T00:00:00.000Z').valueOf();
sats=[{"REV_AT_EPOCH":"14008","APOAPSIS":"548.010","EPOCH":"2022-08-14T19:24:00.157824","MEAN_ANOMALY":"268.8759","ECCENTRICITY":"0.00012410","COUNTRY_CODE":"US","GP_ID":"210228847","REF_FRAME":"TEME","OBJECT_ID":"2020-006G","PERIOD":"95.591","TLE_LINE1":"1 45050U 20006G   22226.80833516  .00006751  00000-0  47139-3 0  9996","INCLINATION":"53.0550","CENTER_NAME":"EARTH","SEMIMAJOR_AXIS":"6925.286","ELEMENT_SET_NO":"999","NORAD_CAT_ID":"45050","MEAN_MOTION_DDOT":"0.0000000000000","BSTAR":"0.00047139000000","MEAN_MOTION_DOT":"0.00006751","OBJECT_NAME":"STARLINK-1140","MEAN_ELEMENT_THEORY":"SGP4","TLE_LINE2":"2 45050  53.0550  15.4676 0001241  91.2372 268.8759 15.06420499140083","PERIAPSIS":"546.291","TIME_SYSTEM":"UTC","FILE":"3536615","RA_OF_ASC_NODE":"15.4676","ARG_OF_PERICENTER":"91.2372","CLASSIFICATION_TYPE":"U","RCS_SIZE":"LARGE","LAUNCH_DATE":"2020-01-29","EPHEMERIS_TYPE":"0","MEAN_MOTION":"15.06420499","DECAY_DATE":null,"OBJECT_TYPE":"PAYLOAD","SITE":"AFETR"},{"MEAN_MOTION_DDOT":"0.0000000000000","BSTAR":"0.00092730000000","INCLINATION":"53.0512","CENTER_NAME":"EARTH","SEMIMAJOR_AXIS":"6901.015","ELEMENT_SET_NO":"999","NORAD_CAT_ID":"45051","REF_FRAME":"TEME","OBJECT_ID":"2020-006H","PERIOD":"95.089","TLE_LINE1":"1 45051U 20006H   22226.67192388  .00016949  00000-0  92730-3 0  9994","REV_AT_EPOCH":"14016","APOAPSIS":"523.974","EPOCH":"2022-08-14T16:07:34.223232","MEAN_ANOMALY":"269.8445","ECCENTRICITY":"0.00015860","COUNTRY_CODE":"US","GP_ID":"210229097","SITE":"AFETR","OBJECT_TYPE":"PAYLOAD","EPHEMERIS_TYPE":"0","DECAY_DATE":null,"MEAN_MOTION":"15.14374609","TIME_SYSTEM":"UTC","FILE":"3536615","ARG_OF_PERICENTER":"90.2729","RA_OF_ASC_NODE":"9.0636","CLASSIFICATION_TYPE":"U","LAUNCH_DATE":"2020-01-29","RCS_SIZE":"LARGE","OBJECT_NAME":"STARLINK-1141","MEAN_MOTION_DOT":"0.00016949","TLE_LINE2":"2 45051  53.0512   9.0636 0001586  90.2729 269.8445 15.14374609140166","MEAN_ELEMENT_THEORY":"SGP4","PERIAPSIS":"521.785"},{"REV_AT_EPOCH":"14008","APOAPSIS":"548.119","EPOCH":"2022-08-14T19:34:37.102080","MEAN_ANOMALY":"269.3152","ECCENTRICITY":"0.00013200","COUNTRY_CODE":"US","GP_ID":"210230346","REF_FRAME":"TEME","OBJECT_ID":"2020-006J","PERIOD":"95.592","TLE_LINE1":"1 45052U 20006J   22226.81570720  .00000332  00000-0  41201-4 0  9998","CENTER_NAME":"EARTH","INCLINATION":"53.0558","SEMIMAJOR_AXIS":"6925.340","ELEMENT_SET_NO":"999","NORAD_CAT_ID":"45052","MEAN_MOTION_DDOT":"0.0000000000000","BSTAR":"0.00004120100000","MEAN_MOTION_DOT":"0.00000332","OBJECT_NAME":"STARLINK-1148","TLE_LINE2":"2 45052  53.0558  15.4391 0001320  90.7989 269.3152 15.06402809140081","MEAN_ELEMENT_THEORY":"SGP4","PERIAPSIS":"546.291","TIME_SYSTEM":"UTC","RA_OF_ASC_NODE":"15.4391","FILE":"3536615","ARG_OF_PERICENTER":"90.7989","CLASSIFICATION_TYPE":"U","RCS_SIZE":"LARGE","LAUNCH_DATE":"2020-01-29","EPHEMERIS_TYPE":"0","DECAY_DATE":null,"MEAN_MOTION":"15.06402809","SITE":"AFETR","OBJECT_TYPE":"PAYLOAD"},{"NORAD_CAT_ID":"45053","INCLINATION":"53.0026","CENTER_NAME":"EARTH","ELEMENT_SET_NO":"999","SEMIMAJOR_AXIS":"6899.927","BSTAR":"0.00095317000000","MEAN_MOTION_DDOT":"0.0000000000000","COUNTRY_CODE":"US","ECCENTRICITY":"0.00019070","GP_ID":"210230595","APOAPSIS":"523.108","REV_AT_EPOCH":"14018","MEAN_ANOMALY":"280.4785","EPOCH":"2022-08-14T15:39:27.411840","TLE_LINE1":"1 45053U 20006K   22226.65240060  .00017612  00000-0  95317-3 0  9997","REF_FRAME":"TEME","PERIOD":"95.066","OBJECT_ID":"2020-006K","MEAN_MOTION":"15.14732827","DECAY_DATE":null,"EPHEMERIS_TYPE":"0","OBJECT_TYPE":"PAYLOAD","SITE":"AFETR","MEAN_ELEMENT_THEORY":"SGP4","TLE_LINE2":"2 45053  53.0026   4.7017 0001907  79.6422 280.4785 15.14732827140189","OBJECT_NAME":"STARLINK-1155","MEAN_MOTION_DOT":"0.00017612","PERIAPSIS":"520.476","CLASSIFICATION_TYPE":"U","FILE":"3536615","RA_OF_ASC_NODE":"4.7017","ARG_OF_PERICENTER":"79.6422","RCS_SIZE":"LARGE","LAUNCH_DATE":"2020-01-29","TIME_SYSTEM":"UTC"},{"ELEMENT_SET_NO":"999","SEMIMAJOR_AXIS":"6925.321","CENTER_NAME":"EARTH","INCLINATION":"53.0547","NORAD_CAT_ID":"45054","MEAN_MOTION_DDOT":"0.0000000000000","BSTAR":"0.00015668000000","MEAN_ANOMALY":"259.0529","EPOCH":"2022-08-14T19:29:18.344832","APOAPSIS":"548.079","REV_AT_EPOCH":"14008","GP_ID":"210229348","COUNTRY_CODE":"US","ECCENTRICITY":"0.00012890","PERIOD":"95.592","OBJECT_ID":"2020-006L","REF_FRAME":"TEME","TLE_LINE1":"1 45054U 20006L   22226.81201788  .00002054  00000-0  15668-3 0  9995","DECAY_DATE":null,"MEAN_MOTION":"15.06408829","EPHEMERIS_TYPE":"0","SITE":"AFETR","OBJECT_TYPE":"PAYLOAD","PERIAPSIS":"546.294","MEAN_ELEMENT_THEORY":"SGP4","TLE_LINE2":"2 45054  53.0547  15.4685 0001289 101.0604 259.0529 15.06408829140083","OBJECT_NAME":"STARLINK-1156","MEAN_MOTION_DOT":"0.00002054","TIME_SYSTEM":"UTC","RCS_SIZE":"LARGE","LAUNCH_DATE":"2020-01-29","CLASSIFICATION_TYPE":"U","FILE":"3536615","ARG_OF_PERICENTER":"101.0604","RA_OF_ASC_NODE":"15.4685"},{"MEAN_ANOMALY":"261.2050","EPOCH":"2022-08-14T19:50:31.890336","APOAPSIS":"548.189","REV_AT_EPOCH":"14009","GP_ID":"210229598","COUNTRY_CODE":"US","ECCENTRICITY":"0.00014360","PERIOD":"95.592","OBJECT_ID":"2020-006P","REF_FRAME":"TEME","TLE_LINE1":"1 45057U 20006P   22226.82675799  .00000648  00000-0  62359-4 0  9993","ELEMENT_SET_NO":"999","SEMIMAJOR_AXIS":"6925.329","CENTER_NAME":"EARTH","INCLINATION":"53.0582","NORAD_CAT_ID":"45057","MEAN_MOTION_DDOT":"0.0000000000000","BSTAR":"0.00006235900000","PERIAPSIS":"546.200","TLE_LINE2":"2 45057  53.0582  15.4047 0001436  98.9102 261.2050 15.06406311140097","MEAN_ELEMENT_THEORY":"SGP4","OBJECT_NAME":"STARLINK-1159","MEAN_MOTION_DOT":"0.00000648","TIME_SYSTEM":"UTC","LAUNCH_DATE":"2020-01-29","RCS_SIZE":"LARGE","CLASSIFICATION_TYPE":"U","ARG_OF_PERICENTER":"98.9102","FILE":"3536615","RA_OF_ASC_NODE":"15.4047","DECAY_DATE":null,"MEAN_MOTION":"15.06406311","EPHEMERIS_TYPE":"0","OBJECT_TYPE":"PAYLOAD","SITE":"AFETR"},{"MEAN_ELEMENT_THEORY":"SGP4","TLE_LINE2":"2 45058  53.0570  15.4323 0001283  95.8139 264.2996 15.06396531140092","MEAN_MOTION_DOT":"-0.00001901","OBJECT_NAME":"STARLINK-1162","PERIAPSIS":"546.336","TIME_SYSTEM":"UTC","CLASSIFICATION_TYPE":"U","ARG_OF_PERICENTER":"95.8139","FILE":"3536615","RA_OF_ASC_NODE":"15.4323","RCS_SIZE":"LARGE","LAUNCH_DATE":"2020-01-29","MEAN_MOTION":"15.06396531","DECAY_DATE":null,"EPHEMERIS_TYPE":"0","OBJECT_TYPE":"PAYLOAD","SITE":"AFETR","APOAPSIS":"548.113","REV_AT_EPOCH":"14009","MEAN_ANOMALY":"264.2996","EPOCH":"2022-08-14T19:39:56.191104","COUNTRY_CODE":"US","ECCENTRICITY":"0.00012830","GP_ID":"210229847","REF_FRAME":"TEME","PERIOD":"95.592","OBJECT_ID":"2020-006Q","TLE_LINE1":"1 45058U 20006Q   22226.81940036 -.00001901  00000-0 -10876-3 0  9993","INCLINATION":"53.0570","CENTER_NAME":"EARTH","ELEMENT_SET_NO":"999","SEMIMAJOR_AXIS":"6925.359","NORAD_CAT_ID":"45058","MEAN_MOTION_DDOT":"0.0000000000000","BSTAR":"-0.00010876000000"},{"GP_ID":"210230097","ECCENTRICITY":"0.00013840","COUNTRY_CODE":"US","EPOCH":"2022-08-14T15:25:09.231744","MEAN_ANOMALY":"259.4340","REV_AT_EPOCH":"14006","APOAPSIS":"548.191","TLE_LINE1":"1 45059U 20006R   22226.64246796 -.00000774  00000-0 -33086-4 0  9993","OBJECT_ID":"2020-006R","PERIOD":"95.593","REF_FRAME":"TEME","NORAD_CAT_ID":"45059","SEMIMAJOR_AXIS":"6925.368","ELEMENT_SET_NO":"999","CENTER_NAME":"EARTH","INCLINATION":"53.0540","BSTAR":"-0.00003308600000","MEAN_MOTION_DDOT":"0.0000000000000","PERIAPSIS":"546.274","MEAN_MOTION_DOT":"-0.00000774","OBJECT_NAME":"STARLINK-1165","TLE_LINE2":"2 45059  53.0540  16.2390 0001384 100.6805 259.4340 15.06393716140068","MEAN_ELEMENT_THEORY":"SGP4","RCS_SIZE":"LARGE","LAUNCH_DATE":"2020-01-29","RA_OF_ASC_NODE":"16.2390","FILE":"3536615","ARG_OF_PERICENTER":"100.6805","CLASSIFICATION_TYPE":"U","TIME_SYSTEM":"UTC","EPHEMERIS_TYPE":"0","DECAY_DATE":null,"MEAN_MOTION":"15.06393716","SITE":"AFETR","OBJECT_TYPE":"PAYLOAD"},{"TLE_LINE1":"1 45060U 20006S   22226.83783808 -.00001826  00000-0 -10378-3 0  9993","PERIOD":"95.593","OBJECT_ID":"2020-006S","REF_FRAME":"TEME","GP_ID":"210228848","COUNTRY_CODE":"US","ECCENTRICITY":"0.00013910","MEAN_ANOMALY":"269.1546","EPOCH":"2022-08-14T20:06:29.210112","APOAPSIS":"548.208","REV_AT_EPOCH":"14009","BSTAR":"-0.00010378000000","MEAN_MOTION_DDOT":"0.0000000000000","NORAD_CAT_ID":"45060","ELEMENT_SET_NO":"999","SEMIMAJOR_AXIS":"6925.380","CENTER_NAME":"EARTH","INCLINATION":"53.0567","LAUNCH_DATE":"2020-01-29","RCS_SIZE":"LARGE","CLASSIFICATION_TYPE":"U","FILE":"3536615","RA_OF_ASC_NODE":"15.3500","ARG_OF_PERICENTER":"90.9602","TIME_SYSTEM":"UTC","PERIAPSIS":"546.281","TLE_LINE2":"2 45060  53.0567  15.3500 0001391  90.9602 269.1546 15.06389886140098","MEAN_ELEMENT_THEORY":"SGP4","OBJECT_NAME":"STARLINK-1166","MEAN_MOTION_DOT":"-0.00001826","SITE":"AFETR","OBJECT_TYPE":"PAYLOAD","MEAN_MOTION":"15.06389886","DECAY_DATE":null,"EPHEMERIS_TYPE":"0"},{"EPOCH":"2022-08-14T15:30:28.183392","MEAN_ANOMALY":"271.7688","APOAPSIS":"548.168","REV_AT_EPOCH":"14006","GP_ID":"210229098","ECCENTRICITY":"0.00013610","COUNTRY_CODE":"US","OBJECT_ID":"2020-006T","PERIOD":"95.592","REF_FRAME":"TEME","TLE_LINE1":"1 45061U 20006T   22226.64615953  .00002829  00000-0  20874-3 0  9992","SEMIMAJOR_AXIS":"6925.361","ELEMENT_SET_NO":"999","INCLINATION":"53.0543","CENTER_NAME":"EARTH","NORAD_CAT_ID":"45061","MEAN_MOTION_DDOT":"0.0000000000000","BSTAR":"0.00020874000000","PERIAPSIS":"546.283","MEAN_MOTION_DOT":"0.00002829","OBJECT_NAME":"STARLINK-1169","TLE_LINE2":"2 45061  53.0543  16.2040 0001361  88.3457 271.7688 15.06396083140068","MEAN_ELEMENT_THEORY":"SGP4","TIME_SYSTEM":"UTC","LAUNCH_DATE":"2020-01-29","RCS_SIZE":"LARGE","RA_OF_ASC_NODE":"16.2040","FILE":"3536615","ARG_OF_PERICENTER":"88.3457","CLASSIFICATION_TYPE":"U","EPHEMERIS_TYPE":"0","MEAN_MOTION":"15.06396083","DECAY_DATE":null,"SITE":"AFETR","OBJECT_TYPE":"PAYLOAD"}];
